GLOBALSTAR M063         
1 26081U 00008A   25310.84244053 -.00000096  00000+0 -19046-3 0  9995
2 26081  51.9934  95.8637 0004154 215.2414 292.7810 11.86176978174501
GLOBALSTAR M062         
1 26082U 00008B   25310.66248831 -.00000011  00000+0  62193-3 0  9991
2 26082  51.9867  36.7998 0007438  61.2429 104.6196 12.43476721514345
GLOBALSTAR M060         
1 26083U 00008C   25310.58578542 -.00000202  00000+0 -10998-2 0  9996
2 26083  52.0047  17.1803 0003451  63.1428  88.7430 12.17667142169717
GLOBALSTAR M064         
1 26084U 00008D   25310.60788146 -.00000044  00000+0  56437-3 0  9995
2 26084  52.0013 193.6350 0001715  10.0461 350.0405 11.88537887184035
GLOBALSTAR M065         
1 31571U 07020A   25310.33479411 -.00000037  00000+0  37267-3 0  9997
2 31571  51.9868 153.6122 0009003 262.7480 268.0128 12.62012905851354
GLOBALSTAR M069         
1 31573U 07020C   25310.99592007 -.00000042  00000+0  46815-3 0  9993
2 31573  52.0007 161.0123 0002803  62.7482  86.8305 12.23463133851609
GLOBALSTAR M072         
1 31574U 07020D   25311.01240861 -.00000065  00000+0  26757-3 0  9994
2 31574  51.9951 331.7353 0000974 237.2980 136.4723 11.91652919848491
GLOBALSTAR M071         
1 31576U 07020F   25310.98087588  .00000003  00000+0  92747-3 0  9999
2 31576  52.0046 190.6991 0001849  56.6032  46.6007 12.18261337512342
